{
    "links": {
        "self": "http://www.neowsapp.com/rest/v1/neo/3893459?api_key=iIulBulltgU6a56xZRHN4H3l9WmuAYTsLGpBGhQ2"
    },
    "id": "3893459",
    "neo_reference_id": "3893459",
    "name": "(2019 WL2)",
    "designation": "2019 WL2",
    "nasa_jpl_url": "http://ssd.jpl.nasa.gov/sbdb.cgi?sstr=3893459",
    "absolute_magnitude_h": 24.2,
    "estimated_diameter": {
        "kilometers": {
            "estimated_diameter_min": 0.0384197891,
            "estimated_diameter_max": 0.0859092601
        },
        "meters": {
            "estimated_diameter_min": 38.4197891064,
            "estimated_diameter_max": 85.9092601232
        },
        "miles": {
            "estimated_diameter_min": 0.0238729428,
            "estimated_diameter_max": 0.0533815229
        },
        "feet": {
            "estimated_diameter_min": 126.0491808919,
            "estimated_diameter_max": 281.8545369825
        }
    },
    "is_potentially_hazardous_asteroid": false,
    "close_approach_data": [
        {
            "close_approach_date": "2019-12-06",
            "close_approach_date_full": "2019-Dec-06 09:47",
            "epoch_date_close_approach": 1575625620000,
            "relative_velocity": {
                "kilometers_per_second": "3.5118888063",
                "kilometers_per_hour": "12642.7997027181",
                "miles_per_hour": "7855.7440708361"
            },
            "miss_distance": {
                "astronomical": "0.1969161009",
                "lunar": "76.6003632501",
                "kilometers": "29458229.263345083",
                "miles": "18304494.8735368254"
            },
            "orbiting_body": "Earth"
        }
    ],
    "orbital_data": {
        "orbit_id": "7",
        "orbit_determination_date": "2020-10-22 09:06:15",
        "first_observation_date": "2019-11-24",
        "last_observation_date": "2019-12-23",
        "data_arc_in_days": 29,
        "observations_used": 46,
        "orbit_uncertainty": "8",
        "minimum_orbit_intersection": ".192975",
        "jupiter_tisserand_invariant": "3.406",
        "epoch_osculation": "2458819.5",
        "eccentricity": ".4918070492065315",
        "semi_major_axis": "2.318065200243239",
        "inclination": "1.890447634872858",
        "ascending_node_longitude": "86.66818804218391",
        "orbital_period": "1289.100858639342",
        "perihelion_distance": "1.178024394243264",
        "perihelion_argument": "348.5255340748822",
        "aphelion_distance": "3.458106006243213",
        "perihelion_time": "2458827.540025546649",
        "mean_anomaly": "357.7547069514416",
        "mean_motion": ".2792644172000501",
        "equinox": "J2000",
        "orbit_class": {
            "orbit_class_type": "AMO",
            "orbit_class_description": "Near-Earth asteroid orbits similar to that of 1221 Amor",
            "orbit_class_range": "1.017 AU < q (perihelion) < 1.3 AU"
        }
    },
    "is_sentry_object": false
}